[{"OBJECT_NAME":"STARLINK-31750","OBJECT_ID":"2024-074U","EPOCH":"2026-03-09T02:22:20.214912","MEAN_MOTION":15.27567967,"ECCENTRICITY":0.00013507,"INCLINATION":43.0053,"RA_OF_ASC_NODE":346.8855,"ARG_OF_PERICENTER":260.2183,"MEAN_ANOMALY":99.8516,"EPHEMERIS_TYPE":0,"CLASSIFICATION_TYPE":"U","NORAD_CAT_ID":59552,"ELEMENT_SET_NO":999,"REV_AT_EPOCH":10592,"BSTAR":-7.2379796e-5,"MEAN_MOTION_DOT":-2.253e-5,"MEAN_MOTION_DDOT":0},{"OBJECT_NAME":"FENGYUN 1C DEB","OBJECT_ID":"1999-025ETT","EPOCH":"2026-03-07T08:30:03.670560","MEAN_MOTION":15.28888299,"ECCENTRICITY":0.00158464,"INCLINATION":99.1103,"RA_OF_ASC_NODE":112.0072,"ARG_OF_PERICENTER":201.0032,"MEAN_ANOMALY":159.0553,"EPHEMERIS_TYPE":0,"CLASSIFICATION_TYPE":"U","NORAD_CAT_ID":38726,"ELEMENT_SET_NO":999,"REV_AT_EPOCH":71135,"BSTAR":0.013792546,"MEAN_MOTION_DOT":0.00409659,"MEAN_MOTION_DDOT":0}]
